[{"OBJECT_NAME":"FENGYUN 1C DEB","OBJECT_ID":"1999-025CAM","EPOCH":"2026-03-01T14:25:12.870624","MEAN_MOTION":14.819135,"ECCENTRICITY":0.00520613,"INCLINATION":99.3426,"RA_OF_ASC_NODE":348.7334,"ARG_OF_PERICENTER":75.6442,"MEAN_ANOMALY":285.0538,"EPHEMERIS_TYPE":0,"CLASSIFICATION_TYPE":"U","NORAD_CAT_ID":31631,"ELEMENT_SET_NO":999,"REV_AT_EPOCH":65136,"BSTAR":0.0086678456,"MEAN_MOTION_DOT":0.0007088,"MEAN_MOTION_DDOT":0},{"OBJECT_NAME":"FENGYUN 1C DEB","OBJECT_ID":"1999-025CAP","EPOCH":"2026-02-20T06:10:21.140832","MEAN_MOTION":14.06621595,"ECCENTRICITY":0.00658928,"INCLINATION":98.7142,"RA_OF_ASC_NODE":67.9055,"ARG_OF_PERICENTER":338.2,"MEAN_ANOMALY":21.6368,"EPHEMERIS_TYPE":0,"CLASSIFICATION_TYPE":"U","NORAD_CAT_ID":31633,"ELEMENT_SET_NO":999,"REV_AT_EPOCH":58061,"BSTAR":0.00080039882,"MEAN_MOTION_DOT":1.311e-5,"MEAN_MOTION_DDOT":0},{"OBJECT_NAME":"FENGYUN 1C DEB","OBJECT_ID":"1999-025CAQ","EPOCH":"2026-02-27T21:30:22.345344","MEAN_MOTION":13.94745247,"ECCENTRICITY":0.0090304,"INCLINATION":99.3546,"RA_OF_ASC_NODE":111.4738,"ARG_OF_PERICENTER":309.182,"MEAN_ANOMALY":50.1344,"EPHEMERIS_TYPE":0,"CLASSIFICATION_TYPE":"U","NORAD_CAT_ID":31634,"ELEMENT_SET_NO":999,"REV_AT_EPOCH":57599,"BSTAR":0.00021158,"MEAN_MOTION_DOT":2.46e-6,"MEAN_MOTION_DDOT":0},{"OBJECT_NAME":"FENGYUN 1C DEB","OBJECT_ID":"1999-025CAV","EPOCH":"2026-03-04T01:49:50.179872","MEAN_MOTION":13.8520758,"ECCENTRICITY":0.01601127,"INCLINATION":98.7539,"RA_OF_ASC_NODE":8.5954,"ARG_OF_PERICENTER":284.6958,"MEAN_ANOMALY":135.3791,"EPHEMERIS_TYPE":0,"CLASSIFICATION_TYPE":"U","NORAD_CAT_ID":31639,"ELEMENT_SET_NO":999,"REV_AT_EPOCH":94814,"BSTAR":0.00020033575,"MEAN_MOTION_DOT":2.1e-6,"MEAN_MOTION_DDOT":0},{"OBJECT_NAME":"FENGYUN 1C DEB","OBJECT_ID":"1999-025CAY","EPOCH":"2026-03-06T04:12:35.112096","MEAN_MOTION":14.33610387,"ECCENTRICITY":0.01194302,"INCLINATION":98.4931,"RA_OF_ASC_NODE":150.9026,"ARG_OF_PERICENTER":9.9694,"MEAN_ANOMALY":350.382,"EPHEMERIS_TYPE":0,"CLASSIFICATION_TYPE":"U","NORAD_CAT_ID":31642,"ELEMENT_SET_NO":999,"REV_AT_EPOCH":98214,"BSTAR":0.00028860372,"MEAN_MOTION_DOT":8.2e-6,"MEAN_MOTION_DDOT":0},{"OBJECT_NAME":"FENGYUN 1C DEB","OBJECT_ID":"1999-025CBA","EPOCH":"2026-03-05T21:59:31.254144","MEAN_MOTION":14.69164204,"ECCENTRICITY":0.01505791,"INCLINATION":98.6648,"RA_OF_ASC_NODE":324.7439,"ARG_OF_PERICENTER":284.3086,"MEAN_ANOMALY":136.777,"EPHEMERIS_TYPE":0,"CLASSIFICATION_TYPE":"U","NORAD_CAT_ID":31644,"ELEMENT_SET_NO":999,"REV_AT_EPOCH":72265,"BSTAR":0.0011109439,"MEAN_MOTION_DOT":7.718e-5,"MEAN_MOTION_DDOT":0},{"OBJECT_NAME":"FENGYUN 1C DEB","OBJECT_ID":"1999-025CBC","EPOCH":"2026-02-14T20:15:28.927584","MEAN_MOTION":14.14274963,"ECCENTRICITY":0.00341912,"INCLINATION":98.6879,"RA_OF_ASC_NODE":72.0813,"ARG_OF_PERICENTER":34.1902,"MEAN_ANOMALY":326.1464,"EPHEMERIS_TYPE":0,"CLASSIFICATION_TYPE":"U","NORAD_CAT_ID":31646,"ELEMENT_SET_NO":999,"REV_AT_EPOCH":64097,"BSTAR":0.00047731091,"MEAN_MOTION_DOT":8.74e-6,"MEAN_MOTION_DDOT":0},{"OBJECT_NAME":"FENGYUN 1C DEB","OBJECT_ID":"1999-025CBE","EPOCH":"2026-02-28T20:18:40.736448","MEAN_MOTION":14.16595614,"ECCENTRICITY":0.00451772,"INCLINATION":102.7951,"RA_OF_ASC_NODE":281.6047,"ARG_OF_PERICENTER":325.6315,"MEAN_ANOMALY":34.1924,"EPHEMERIS_TYPE":0,"CLASSIFICATION_TYPE":"U","NORAD_CAT_ID":31648,"ELEMENT_SET_NO":999,"REV_AT_EPOCH":73003,"BSTAR":0.0028157702,"MEAN_MOTION_DOT":5.6e-5,"MEAN_MOTION_DDOT":0},{"OBJECT_NAME":"FENGYUN 1C DEB","OBJECT_ID":"1999-025CBM","EPOCH":"2026-02-22T01:54:32.280192","MEAN_MOTION":13.64674842,"ECCENTRICITY":0.02934299,"INCLINATION":99.2999,"RA_OF_ASC_NODE":0.9185,"ARG_OF_PERICENTER":314.7231,"MEAN_ANOMALY":103.5208,"EPHEMERIS_TYPE":0,"CLASSIFICATION_TYPE":"U","NORAD_CAT_ID":31655,"ELEMENT_SET_NO":999,"REV_AT_EPOCH":60692,"BSTAR":0.0033391893,"MEAN_MOTION_DOT":3.559e-5,"MEAN_MOTION_DDOT":0},{"OBJECT_NAME":"FENGYUN 1C DEB","OBJECT_ID":"1999-025CBN","EPOCH":"2026-03-03T23:11:33.674208","MEAN_MOTION":14.48495401,"ECCENTRICITY":0.0021176,"INCLINATION":99.1979,"RA_OF_ASC_NODE":63.7892,"ARG_OF_PERICENTER":167.965,"MEAN_ANOMALY":222.6746,"EPHEMERIS_TYPE":0,"CLASSIFICATION_TYPE":"U","NORAD_CAT_ID":31656,"ELEMENT_SET_NO":999,"REV_AT_EPOCH":97631,"BSTAR":0.0027803,"MEAN_MOTION_DOT":0.00010425,"MEAN_MOTION_DDOT":0},{"OBJECT_NAME":"FENGYUN 1C DEB","OBJECT_ID":"1999-025CBP","EPOCH":"2026-02-08T01:28:36.726816","MEAN_MOTION":13.97833643,"ECCENTRICITY":0.0147612,"INCLINATION":102.2158,"RA_OF_ASC_NODE":327.1431,"ARG_OF_PERICENTER":278.7453,"MEAN_ANOMALY":79.7005,"EPHEMERIS_TYPE":0,"CLASSIFICATION_TYPE":"U","NORAD_CAT_ID":31657,"ELEMENT_SET_NO":999,"REV_AT_EPOCH":63665,"BSTAR":0.0036837,"MEAN_MOTION_DOT":5.655e-5,"MEAN_MOTION_DDOT":0},{"OBJECT_NAME":"FENGYUN 1C DEB","OBJECT_ID":"1999-025CBQ","EPOCH":"2026-03-04T12:44:15.069408","MEAN_MOTION":13.99677132,"ECCENTRICITY":0.0210773,"INCLINATION":98.1559,"RA_OF_ASC_NODE":268.7874,"ARG_OF_PERICENTER":90.9868,"MEAN_ANOMALY":271.5454,"EPHEMERIS_TYPE":0,"CLASSIFICATION_TYPE":"U","NORAD_CAT_ID":31658,"ELEMENT_SET_NO":999,"REV_AT_EPOCH":70960,"BSTAR":0.0026796,"MEAN_MOTION_DOT":4.713e-5,"MEAN_MOTION_DDOT":0},{"OBJECT_NAME":"FENGYUN 1C DEB","OBJECT_ID":"1999-025CBS","EPOCH":"2026-03-06T05:51:44.791488","MEAN_MOTION":14.27467048,"ECCENTRICITY":0.01001636,"INCLINATION":98.5097,"RA_OF_ASC_NODE":69.3517,"ARG_OF_PERICENTER":296.6734,"MEAN_ANOMALY":62.4218,"EPHEMERIS_TYPE":0,"CLASSIFICATION_TYPE":"U","NORAD_CAT_ID":31660,"ELEMENT_SET_NO":999,"REV_AT_EPOCH":9107,"BSTAR":0.00093073881,"MEAN_MOTION_DOT":2.367e-5,"MEAN_MOTION_DDOT":0},{"OBJECT_NAME":"FENGYUN 1C DEB","OBJECT_ID":"1999-025CBT","EPOCH":"2026-03-06T04:25:33.703104","MEAN_MOTION":14.2609309,"ECCENTRICITY":0.00552566,"INCLINATION":98.8508,"RA_OF_ASC_NODE":150.1293,"ARG_OF_PERICENTER":343.799,"MEAN_ANOMALY":45.8887,"EPHEMERIS_TYPE":0,"CLASSIFICATION_TYPE":"U","NORAD_CAT_ID":31661,"ELEMENT_SET_NO":999,"REV_AT_EPOCH":96902,"BSTAR":0.0012467598,"MEAN_MOTION_DOT":2.984e-5,"MEAN_MOTION_DDOT":0},{"OBJECT_NAME":"FENGYUN 1C DEB","OBJECT_ID":"1999-025CBV","EPOCH":"2026-03-05T13:48:19.116864","MEAN_MOTION":14.76921184,"ECCENTRICITY":0.0188918,"INCLINATION":98.8385,"RA_OF_ASC_NODE":345.2931,"ARG_OF_PERICENTER":337.3368,"MEAN_ANOMALY":21.9577,"EPHEMERIS_TYPE":0,"CLASSIFICATION_TYPE":"U","NORAD_CAT_ID":31663,"ELEMENT_SET_NO":999,"REV_AT_EPOCH":496,"BSTAR":0.00055845,"MEAN_MOTION_DOT":5.206e-5,"MEAN_MOTION_DDOT":0},{"OBJECT_NAME":"FENGYUN 1C DEB","OBJECT_ID":"1999-025CBW","EPOCH":"2026-03-01T18:23:22.526016","MEAN_MOTION":14.10446028,"ECCENTRICITY":0.01233295,"INCLINATION":98.7591,"RA_OF_ASC_NODE":55.2218,"ARG_OF_PERICENTER":294.9686,"MEAN_ANOMALY":63.8715,"EPHEMERIS_TYPE":0,"CLASSIFICATION_TYPE":"U","NORAD_CAT_ID":31664,"ELEMENT_SET_NO":999,"REV_AT_EPOCH":97115,"BSTAR":0.0004888802,"MEAN_MOTION_DOT":8.89e-6,"MEAN_MOTION_DDOT":0},{"OBJECT_NAME":"FENGYUN 1C DEB","OBJECT_ID":"1999-025CBX","EPOCH":"2026-03-03T01:35:57.869664","MEAN_MOTION":13.85069058,"ECCENTRICITY":0.01851872,"INCLINATION":98.445,"RA_OF_ASC_NODE":102.1088,"ARG_OF_PERICENTER":326.9297,"MEAN_ANOMALY":32.039,"EPHEMERIS_TYPE":0,"CLASSIFICATION_TYPE":"U","NORAD_CAT_ID":31665,"ELEMENT_SET_NO":999,"REV_AT_EPOCH":94303,"BSTAR":0.0011932819,"MEAN_MOTION_DOT":1.505e-5,"MEAN_MOTION_DDOT":0},{"OBJECT_NAME":"FENGYUN 1C DEB","OBJECT_ID":"1999-025CBY","EPOCH":"2026-03-05T21:15:09.131904","MEAN_MOTION":14.90338099,"ECCENTRICITY":0.00252789,"INCLINATION":98.6561,"RA_OF_ASC_NODE":226.0028,"ARG_OF_PERICENTER":239.6944,"MEAN_ANOMALY":120.177,"EPHEMERIS_TYPE":0,"CLASSIFICATION_TYPE":"U","NORAD_CAT_ID":31666,"ELEMENT_SET_NO":999,"REV_AT_EPOCH":98507,"BSTAR":0.0042390088,"MEAN_MOTION_DOT":0.00041635,"MEAN_MOTION_DDOT":0},{"OBJECT_NAME":"FENGYUN 1C DEB","OBJECT_ID":"1999-025CBZ","EPOCH":"2026-03-02T09:36:29.734560","MEAN_MOTION":14.23614222,"ECCENTRICITY":0.00502209,"INCLINATION":99.0805,"RA_OF_ASC_NODE":280.9743,"ARG_OF_PERICENTER":218.6059,"MEAN_ANOMALY":141.1523,"EPHEMERIS_TYPE":0,"CLASSIFICATION_TYPE":"U","NORAD_CAT_ID":31667,"ELEMENT_SET_NO":999,"REV_AT_EPOCH":57126,"BSTAR":0.00028679216,"MEAN_MOTION_DOT":6.15e-6,"MEAN_MOTION_DDOT":0},{"OBJECT_NAME":"FENGYUN 1C DEB","OBJECT_ID":"1999-025CCE","EPOCH":"2026-02-20T23:45:09.199584","MEAN_MOTION":14.52342816,"ECCENTRICITY":0.01049675,"INCLINATION":98.9581,"RA_OF_ASC_NODE":249.2139,"ARG_OF_PERICENTER":130.2562,"MEAN_ANOMALY":230.787,"EPHEMERIS_TYPE":0,"CLASSIFICATION_TYPE":"U","NORAD_CAT_ID":31672,"ELEMENT_SET_NO":999,"REV_AT_EPOCH":65890,"BSTAR":0.0014030025,"MEAN_MOTION_DOT":6.086e-5,"MEAN_MOTION_DDOT":0},{"OBJECT_NAME":"FENGYUN 1C DEB","OBJECT_ID":"1999-025CCF","EPOCH":"2026-02-28T12:28:37.942176","MEAN_MOTION":14.32081921,"ECCENTRICITY":0.01243399,"INCLINATION":99.3739,"RA_OF_ASC_NODE":265.2327,"ARG_OF_PERICENTER":184.4282,"MEAN_ANOMALY":175.5809,"EPHEMERIS_TYPE":0,"CLASSIFICATION_TYPE":"U","NORAD_CAT_ID":31673,"ELEMENT_SET_NO":999,"REV_AT_EPOCH":66004,"BSTAR":0.00026650421,"MEAN_MOTION_DOT":7.27e-6,"MEAN_MOTION_DDOT":0},{"OBJECT_NAME":"FENGYUN 1C DEB","OBJECT_ID":"1999-025CCL","EPOCH":"2026-03-06T03:34:06.810816","MEAN_MOTION":14.54899177,"ECCENTRICITY":0.02544592,"INCLINATION":98.8002,"RA_OF_ASC_NODE":183.6648,"ARG_OF_PERICENTER":134.2479,"MEAN_ANOMALY":227.9915,"EPHEMERIS_TYPE":0,"CLASSIFICATION_TYPE":"U","NORAD_CAT_ID":31678,"ELEMENT_SET_NO":999,"REV_AT_EPOCH":98051,"BSTAR":0.0019572837,"MEAN_MOTION_DOT":0.00012976,"MEAN_MOTION_DDOT":0},{"OBJECT_NAME":"FENGYUN 1C DEB","OBJECT_ID":"1999-025CCN","EPOCH":"2026-03-05T14:15:10.660896","MEAN_MOTION":15.31777327,"ECCENTRICITY":0.0063691,"INCLINATION":99.839,"RA_OF_ASC_NODE":203.4057,"ARG_OF_PERICENTER":15.5572,"MEAN_ANOMALY":344.7599,"EPHEMERIS_TYPE":0,"CLASSIFICATION_TYPE":"U","NORAD_CAT_ID":31680,"ELEMENT_SET_NO":999,"REV_AT_EPOCH":1437,"BSTAR":0.0014293,"MEAN_MOTION_DOT":0.0004686,"MEAN_MOTION_DDOT":0}]
